{
    "links": {
        "self": "http://www.neowsapp.com/rest/v1/neo/3836227?api_key=iIulBulltgU6a56xZRHN4H3l9WmuAYTsLGpBGhQ2"
    },
    "id": "3836227",
    "neo_reference_id": "3836227",
    "name": "(2018 VY8)",
    "designation": "2018 VY8",
    "nasa_jpl_url": "http://ssd.jpl.nasa.gov/sbdb.cgi?sstr=3836227",
    "absolute_magnitude_h": 22.7,
    "estimated_diameter": {
        "kilometers": {
            "estimated_diameter_min": 0.0766575574,
            "estimated_diameter_max": 0.1714115092
        },
        "meters": {
            "estimated_diameter_min": 76.6575573531,
            "estimated_diameter_max": 171.4115092306
        },
        "miles": {
            "estimated_diameter_min": 0.0476327831,
            "estimated_diameter_max": 0.1065101409
        },
        "feet": {
            "estimated_diameter_min": 251.5011804664,
            "estimated_diameter_max": 562.3737359442
        }
    },
    "is_potentially_hazardous_asteroid": false,
    "close_approach_data": [
        {
            "close_approach_date": "2018-05-17",
            "close_approach_date_full": "2018-May-17 07:41",
            "epoch_date_close_approach": 1526542860000,
            "relative_velocity": {
                "kilometers_per_second": "21.7790505456",
                "kilometers_per_hour": "78404.5819642885",
                "miles_per_hour": "48717.5581655325"
            },
            "miss_distance": {
                "astronomical": "0.4041958537",
                "lunar": "157.2321870893",
                "kilometers": "60466838.776351619",
                "miles": "37572351.3625415822"
            },
            "orbiting_body": "Earth"
        },
        {
            "close_approach_date": "2018-11-08",
            "close_approach_date_full": "2018-Nov-08 13:04",
            "epoch_date_close_approach": 1541682240000,
            "relative_velocity": {
                "kilometers_per_second": "23.989687217",
                "kilometers_per_hour": "86362.8739813796",
                "miles_per_hour": "53662.5313358189"
            },
            "miss_distance": {
                "astronomical": "0.1332819511",
                "lunar": "51.8466789779",
                "kilometers": "19938695.994004157",
                "miles": "12389331.1897530866"
            },
            "orbiting_body": "Earth"
        }
    ],
    "orbital_data": {
        "orbit_id": "5",
        "orbit_determination_date": "2018-12-25 06:57:31",
        "first_observation_date": "2018-11-12",
        "last_observation_date": "2018-11-18",
        "data_arc_in_days": 6,
        "observations_used": 40,
        "orbit_uncertainty": "9",
        "minimum_orbit_intersection": ".122023",
        "jupiter_tisserand_invariant": "4.524",
        "epoch_osculation": "2458436.5",
        "eccentricity": ".2672264697387986",
        "semi_major_axis": "1.363621000864706",
        "inclination": "44.10889320743561",
        "ascending_node_longitude": "46.68845871407263",
        "orbital_period": "581.6194863302218",
        "perihelion_distance": ".9992253747419432",
        "perihelion_argument": "299.5588432553809",
        "aphelion_distance": "1.728016626987468",
        "perihelion_time": "2458377.420935258371",
        "mean_anomaly": "36.5676594523709",
        "mean_motion": ".6189613801825159",
        "equinox": "J2000",
        "orbit_class": {
            "orbit_class_type": "APO",
            "orbit_class_description": "Near-Earth asteroid orbits which cross the Earth’s orbit similar to that of 1862 Apollo",
            "orbit_class_range": "a (semi-major axis) > 1.0 AU; q (perihelion) < 1.017 AU"
        }
    },
    "is_sentry_object": false
}